[{"OBJECT_NAME":"HAIYANG-1C","OBJECT_ID":"2018-068A","EPOCH":"2026-03-09T23:11:36.870144","MEAN_MOTION":14.34145137,"ECCENTRICITY":0.00114449,"INCLINATION":98.527,"RA_OF_ASC_NODE":142.6779,"ARG_OF_PERICENTER":34.5915,"MEAN_ANOMALY":325.6013,"EPHEMERIS_TYPE":0,"CLASSIFICATION_TYPE":"U","NORAD_CAT_ID":43609,"ELEMENT_SET_NO":999,"REV_AT_EPOCH":39286,"BSTAR":4.0329797e-5,"MEAN_MOTION_DOT":6.9e-7,"MEAN_MOTION_DDOT":0},{"OBJECT_NAME":"FENGYUN 1C DEB","OBJECT_ID":"1999-025DXW","EPOCH":"2026-03-09T11:03:16.048224","MEAN_MOTION":14.23657316,"ECCENTRICITY":0.00532705,"INCLINATION":98.9328,"RA_OF_ASC_NODE":156.9615,"ARG_OF_PERICENTER":106.533,"MEAN_ANOMALY":254.1709,"EPHEMERIS_TYPE":0,"CLASSIFICATION_TYPE":"U","NORAD_CAT_ID":36652,"ELEMENT_SET_NO":999,"REV_AT_EPOCH":65558,"BSTAR":0.0019409561,"MEAN_MOTION_DOT":4.449e-5,"MEAN_MOTION_DDOT":0}]
